CCSDS_OMM_VERS = 2.0
CREATION_DATE  = 
ORIGINATOR     = 

OBJECT_NAME    = ATLAS CENTAUR R/B
OBJECT_ID      = 1972-065B
CENTER_NAME    = EARTH
REF_FRAME      = TEME
TIME_SYSTEM    = UTC
MEAN_ELEMENT_THEORY = SGP/SGP4

EPOCH          = 2026-01-25T20:30:27.707904
MEAN_MOTION    = 14.77549773
ECCENTRICITY   = .00337341
INCLINATION    = 34.9997
RA_OF_ASC_NODE = 196.7576
ARG_OF_PERICENTER = 8.4330
MEAN_ANOMALY   = 351.6932

EPHEMERIS_TYPE = 0
CLASSIFICATION_TYPE = U
NORAD_CAT_ID   = 6155
ELEMENT_SET_NO = 999
REV_AT_EPOCH   = 83492
BSTAR          = .29226397E-3
MEAN_MOTION_DOT = .2117E-4
MEAN_MOTION_DDOT = 0

CCSDS_OMM_VERS = 2.0
CREATION_DATE  = 
ORIGINATOR     = 

OBJECT_NAME    = SL-8 R/B
OBJECT_ID      = 1975-112B
CENTER_NAME    = EARTH
REF_FRAME      = TEME
TIME_SYSTEM    = UTC
MEAN_ELEMENT_THEORY = SGP/SGP4

EPOCH          = 2026-01-26T06:43:32.165760
MEAN_MOTION    = 14.38180833
ECCENTRICITY   = .00160047
INCLINATION    = 74.0607
RA_OF_ASC_NODE = 96.9321
ARG_OF_PERICENTER = 203.1163
MEAN_ANOMALY   = 156.9273

EPHEMERIS_TYPE = 0
CLASSIFICATION_TYPE = U
NORAD_CAT_ID   = 8459
ELEMENT_SET_NO = 999
REV_AT_EPOCH   = 62577
BSTAR          = .140818E-3
MEAN_MOTION_DOT = .402E-5
MEAN_MOTION_DDOT = 0

CCSDS_OMM_VERS = 2.0
CREATION_DATE  = 
ORIGINATOR     = 

OBJECT_NAME    = SL-3 R/B
OBJECT_ID      = 1977-057B
CENTER_NAME    = EARTH
REF_FRAME      = TEME
TIME_SYSTEM    = UTC
MEAN_ELEMENT_THEORY = SGP/SGP4

EPOCH          = 2026-01-26T05:28:12.821088
MEAN_MOTION    = 15.44215133
ECCENTRICITY   = .00085645
INCLINATION    = 97.5718
RA_OF_ASC_NODE = 196.3368
ARG_OF_PERICENTER = 78.2726
MEAN_ANOMALY   = 281.9482

EPHEMERIS_TYPE = 0
CLASSIFICATION_TYPE = U
NORAD_CAT_ID   = 10114
ELEMENT_SET_NO = 999
REV_AT_EPOCH   = 66177
BSTAR          = .37229457E-3
MEAN_MOTION_DOT = .17037E-3
MEAN_MOTION_DDOT = 0

CCSDS_OMM_VERS = 2.0
CREATION_DATE  = 
ORIGINATOR     = 

OBJECT_NAME    = SEASAT 1
OBJECT_ID      = 1978-064A
CENTER_NAME    = EARTH
REF_FRAME      = TEME
TIME_SYSTEM    = UTC
MEAN_ELEMENT_THEORY = SGP/SGP4

EPOCH          = 2026-01-26T07:12:46.833120
MEAN_MOTION    = 14.46120301
ECCENTRICITY   = .00012765
INCLINATION    = 108.0171
RA_OF_ASC_NODE = 36.5387
ARG_OF_PERICENTER = 286.8763
MEAN_ANOMALY   = 73.2242

EPHEMERIS_TYPE = 0
CLASSIFICATION_TYPE = U
NORAD_CAT_ID   = 10967
ELEMENT_SET_NO = 999
REV_AT_EPOCH   = 50038
BSTAR          = .21835852E-3
MEAN_MOTION_DOT = .644E-5
MEAN_MOTION_DDOT = 0

CCSDS_OMM_VERS = 2.0
CREATION_DATE  = 
ORIGINATOR     = 

OBJECT_NAME    = SL-14 R/B
OBJECT_ID      = 1979-011B
CENTER_NAME    = EARTH
REF_FRAME      = TEME
TIME_SYSTEM    = UTC
MEAN_ELEMENT_THEORY = SGP/SGP4

EPOCH          = 2026-01-26T07:48:50.401440
MEAN_MOTION    = 14.91847561
ECCENTRICITY   = .00156689
INCLINATION    = 82.5262
RA_OF_ASC_NODE = 136.7610
ARG_OF_PERICENTER = 193.8398
MEAN_ANOMALY   = 166.2395

EPHEMERIS_TYPE = 0
CLASSIFICATION_TYPE = U
NORAD_CAT_ID   = 11267
ELEMENT_SET_NO = 999
REV_AT_EPOCH   = 52246
BSTAR          = .11451495E-3
MEAN_MOTION_DOT = .1183E-4
MEAN_MOTION_DDOT = 0

CCSDS_OMM_VERS = 2.0
CREATION_DATE  = 
ORIGINATOR     = 

OBJECT_NAME    = SL-8 R/B
OBJECT_ID      = 1979-089B
CENTER_NAME    = EARTH
REF_FRAME      = TEME
TIME_SYSTEM    = UTC
MEAN_ELEMENT_THEORY = SGP/SGP4

EPOCH          = 2026-01-25T19:28:47.057664
MEAN_MOTION    = 14.42320328
ECCENTRICITY   = .00159719
INCLINATION    = 74.0687
RA_OF_ASC_NODE = 170.4087
ARG_OF_PERICENTER = 349.5192
MEAN_ANOMALY   = 10.5629

EPHEMERIS_TYPE = 0
CLASSIFICATION_TYPE = U
NORAD_CAT_ID   = 11574
ELEMENT_SET_NO = 999
REV_AT_EPOCH   = 42992
BSTAR          = .19018418E-3
MEAN_MOTION_DOT = .603E-5
MEAN_MOTION_DDOT = 0

CCSDS_OMM_VERS = 2.0
CREATION_DATE  = 
ORIGINATOR     = 

OBJECT_NAME    = SL-14 R/B
OBJECT_ID      = 1980-005B
CENTER_NAME    = EARTH
REF_FRAME      = TEME
TIME_SYSTEM    = UTC
MEAN_ELEMENT_THEORY = SGP/SGP4

EPOCH          = 2026-01-26T07:27:32.919552
MEAN_MOTION    = 14.90865221
ECCENTRICITY   = .00144927
INCLINATION    = 82.5164
RA_OF_ASC_NODE = 347.4227
ARG_OF_PERICENTER = 308.9851
MEAN_ANOMALY   = 51.0076

EPHEMERIS_TYPE = 0
CLASSIFICATION_TYPE = U
NORAD_CAT_ID   = 11672
ELEMENT_SET_NO = 999
REV_AT_EPOCH   = 47017
BSTAR          = .11846137E-3
MEAN_MOTION_DOT = .1193E-4
MEAN_MOTION_DDOT = 0

CCSDS_OMM_VERS = 2.0
CREATION_DATE  = 
ORIGINATOR     = 

OBJECT_NAME    = SL-8 R/B
OBJECT_ID      = 1981-003B
CENTER_NAME    = EARTH
REF_FRAME      = TEME
TIME_SYSTEM    = UTC
MEAN_ELEMENT_THEORY = SGP/SGP4

EPOCH          = 2026-01-26T06:17:46.205376
MEAN_MOTION    = 15.09180579
ECCENTRICITY   = .02672353
INCLINATION    = 82.9392
RA_OF_ASC_NODE = 329.2073
ARG_OF_PERICENTER = 327.0066
MEAN_ANOMALY   = 31.4724

EPHEMERIS_TYPE = 0
CLASSIFICATION_TYPE = U
NORAD_CAT_ID   = 12139
ELEMENT_SET_NO = 999
REV_AT_EPOCH   = 30827
BSTAR          = .83872479E-3
MEAN_MOTION_DOT = .31581E-3
MEAN_MOTION_DDOT = 0

CCSDS_OMM_VERS = 2.0
CREATION_DATE  = 
ORIGINATOR     = 

OBJECT_NAME    = SL-3 R/B
OBJECT_ID      = 1981-046B
CENTER_NAME    = EARTH
REF_FRAME      = TEME
TIME_SYSTEM    = UTC
MEAN_ELEMENT_THEORY = SGP/SGP4

EPOCH          = 2026-01-26T06:19:37.879104
MEAN_MOTION    = 15.40762528
ECCENTRICITY   = .00197154
INCLINATION    = 81.2339
RA_OF_ASC_NODE = 340.6292
ARG_OF_PERICENTER = 161.4187
MEAN_ANOMALY   = 198.7780

EPHEMERIS_TYPE = 0
CLASSIFICATION_TYPE = U
NORAD_CAT_ID   = 12465
ELEMENT_SET_NO = 999
REV_AT_EPOCH   = 43189
BSTAR          = .40981934E-3
MEAN_MOTION_DOT = .16923E-3
MEAN_MOTION_DDOT = 0

CCSDS_OMM_VERS = 2.0
CREATION_DATE  = 
ORIGINATOR     = 

OBJECT_NAME    = SL-3 R/B
OBJECT_ID      = 1981-103B
CENTER_NAME    = EARTH
REF_FRAME      = TEME
TIME_SYSTEM    = UTC
MEAN_ELEMENT_THEORY = SGP/SGP4

EPOCH          = 2026-01-26T06:39:10.683936
MEAN_MOTION    = 15.20844369
ECCENTRICITY   = .00144284
INCLINATION    = 81.1573
RA_OF_ASC_NODE = 263.1747
ARG_OF_PERICENTER = 69.0410
MEAN_ANOMALY   = 291.2364

EPHEMERIS_TYPE = 0
CLASSIFICATION_TYPE = U
NORAD_CAT_ID   = 12904
ELEMENT_SET_NO = 999
REV_AT_EPOCH   = 96678
BSTAR          = .35824105E-3
MEAN_MOTION_DOT = .7954E-4
MEAN_MOTION_DDOT = 0

CCSDS_OMM_VERS = 2.0
CREATION_DATE  = 
ORIGINATOR     = 

OBJECT_NAME    = SL-3 R/B
OBJECT_ID      = 1982-013B
CENTER_NAME    = EARTH
REF_FRAME      = TEME
TIME_SYSTEM    = UTC
MEAN_ELEMENT_THEORY = SGP/SGP4

EPOCH          = 2026-01-26T05:42:37.111392
MEAN_MOTION    = 15.21532650
ECCENTRICITY   = .00222297
INCLINATION    = 81.1731
RA_OF_ASC_NODE = 210.5051
ARG_OF_PERICENTER = 324.8464
MEAN_ANOMALY   = 35.1299

EPHEMERIS_TYPE = 0
CLASSIFICATION_TYPE = U
NORAD_CAT_ID   = 13068
ELEMENT_SET_NO = 999
REV_AT_EPOCH   = 39789
BSTAR          = .28123017E-3
MEAN_MOTION_DOT = .64E-4
MEAN_MOTION_DDOT = 0

CCSDS_OMM_VERS = 2.0
CREATION_DATE  = 
ORIGINATOR     = 

OBJECT_NAME    = SL-3 R/B
OBJECT_ID      = 1982-039B
CENTER_NAME    = EARTH
REF_FRAME      = TEME
TIME_SYSTEM    = UTC
MEAN_ELEMENT_THEORY = SGP/SGP4

EPOCH          = 2026-01-26T05:53:53.668320
MEAN_MOTION    = 15.09834338
ECCENTRICITY   = .00300512
INCLINATION    = 81.1648
RA_OF_ASC_NODE = 264.8752
ARG_OF_PERICENTER = 103.3436
MEAN_ANOMALY   = 257.1143

EPHEMERIS_TYPE = 0
CLASSIFICATION_TYPE = U
NORAD_CAT_ID   = 13154
ELEMENT_SET_NO = 999
REV_AT_EPOCH   = 37523
BSTAR          = .23656411E-3
MEAN_MOTION_DOT = .3889E-4
MEAN_MOTION_DDOT = 0

