ATLAS CENTAUR R/B       
1 06155U 72065B   26025.85448736  .00002117  00000+0  29226-3 0  9991
2 06155  34.9997 196.7576 0033734   8.4330 351.6932 14.77549773834928
SL-8 R/B                
1 08459U 75112B   26026.28023340  .00000402  00000+0  14082-3 0  9993
2 08459  74.0607  96.9321 0016004 203.1163 156.9273 14.38180833625778
SL-3 R/B                
1 10114U 77057B   26026.22792617  .00017037  00000+0  37229-3 0  9998
2 10114  97.5718 196.3368 0008564  78.2726 281.9482 15.44215133661777
SEASAT 1                
1 10967U 78064A   26026.30054205  .00000644  00000+0  21836-3 0  9999
2 10967 108.0171  36.5387 0001276 286.8763  73.2242 14.46120301500389
SL-14 R/B               
1 11267U 79011B   26026.32558335  .00001183  00000+0  11451-3 0  9992
2 11267  82.5262 136.7610 0015668 193.8398 166.2395 14.91847561522462
SL-8 R/B                
1 11574U 79089B   26025.81165576  .00000603  00000+0  19018-3 0  9995
2 11574  74.0687 170.4087 0015971 349.5192  10.5629 14.42320328429923
SL-14 R/B               
1 11672U 80005B   26026.31079768  .00001193  00000+0  11846-3 0  9993
2 11672  82.5164 347.4227 0014492 308.9851  51.0076 14.90865221470174
SL-8 R/B                
1 12139U 81003B   26026.26234034  .00031581  00000+0  83872-3 0  9996
2 12139  82.9392 329.2073 0267235 327.0066  31.4724 15.09180579308272
SL-3 R/B                
1 12465U 81046B   26026.26363286  .00016923  00000+0  40982-3 0  9995
2 12465  81.2339 340.6292 0019715 161.4187 198.7780 15.40762528431898
SL-3 R/B                
1 12904U 81103B   26026.27720699  .00007954  00000+0  35824-3 0  9996
2 12904  81.1573 263.1747 0014428  69.0410 291.2364 15.20844369966787
SL-3 R/B                
1 13068U 82013B   26026.23792953  .00006400  00000+0  28123-3 0  9996
2 13068  81.1731 210.5051 0022229 324.8464  35.1299 15.21532650397898
SL-3 R/B                
1 13154U 82039B   26026.24576005  .00003889  00000+0  23656-3 0  9993
2 13154  81.1648 264.8752 0030051 103.3436 257.1143 15.09834338375234
